{
    "links": {
        "self": "http://www.neowsapp.com/rest/v1/neo/3766997?api_key=iIulBulltgU6a56xZRHN4H3l9WmuAYTsLGpBGhQ2"
    },
    "id": "3766997",
    "neo_reference_id": "3766997",
    "name": "(2017 BA6)",
    "designation": "2017 BA6",
    "nasa_jpl_url": "http://ssd.jpl.nasa.gov/sbdb.cgi?sstr=3766997",
    "absolute_magnitude_h": 26.3,
    "estimated_diameter": {
        "kilometers": {
            "estimated_diameter_min": 0.0146067964,
            "estimated_diameter_max": 0.0326617897
        },
        "meters": {
            "estimated_diameter_min": 14.6067964271,
            "estimated_diameter_max": 32.6617897446
        },
        "miles": {
            "estimated_diameter_min": 0.0090762397,
            "estimated_diameter_max": 0.020295089
        },
        "feet": {
            "estimated_diameter_min": 47.92256199,
            "estimated_diameter_max": 107.1581062656
        }
    },
    "is_potentially_hazardous_asteroid": false,
    "close_approach_data": [
        {
            "close_approach_date": "2008-02-02",
            "close_approach_date_full": "2008-Feb-02 09:50",
            "epoch_date_close_approach": 1201945800000,
            "relative_velocity": {
                "kilometers_per_second": "16.7266973343",
                "kilometers_per_hour": "60216.1104035362",
                "miles_per_hour": "37415.9492671306"
            },
            "miss_distance": {
                "astronomical": "0.226958807",
                "lunar": "88.286975923",
                "kilometers": "33952554.10494109",
                "miles": "21097138.833483442"
            },
            "orbiting_body": "Earth"
        },
        {
            "close_approach_date": "2012-07-19",
            "close_approach_date_full": "2012-Jul-19 09:32",
            "epoch_date_close_approach": 1342690320000,
            "relative_velocity": {
                "kilometers_per_second": "14.0149719069",
                "kilometers_per_hour": "50453.8988646614",
                "miles_per_hour": "31350.0906584337"
            },
            "miss_distance": {
                "astronomical": "0.3670749246",
                "lunar": "142.7921456694",
                "kilometers": "54913626.850570602",
                "miles": "34121745.4785822276"
            },
            "orbiting_body": "Earth"
        },
        {
            "close_approach_date": "2017-01-25",
            "close_approach_date_full": "2017-Jan-25 16:18",
            "epoch_date_close_approach": 1485361080000,
            "relative_velocity": {
                "kilometers_per_second": "15.0845310492",
                "kilometers_per_hour": "54304.3117772777",
                "miles_per_hour": "33742.5875040535"
            },
            "miss_distance": {
                "astronomical": "0.0346475718",
                "lunar": "13.4779054302",
                "kilometers": "5183202.941952066",
                "miles": "3220692.9626118708"
            },
            "orbiting_body": "Earth"
        },
        {
            "close_approach_date": "2021-07-28",
            "close_approach_date_full": "2021-Jul-28 13:06",
            "epoch_date_close_approach": 1627477560000,
            "relative_velocity": {
                "kilometers_per_second": "13.9760244199",
                "kilometers_per_hour": "50313.6879116483",
                "miles_per_hour": "31262.9690248795"
            },
            "miss_distance": {
                "astronomical": "0.3243095439",
                "lunar": "126.1564125771",
                "kilometers": "48516016.988111493",
                "miles": "30146455.0467168834"
            },
            "orbiting_body": "Earth"
        },
        {
            "close_approach_date": "2027-12-20",
            "close_approach_date_full": "2027-Dec-20 07:59",
            "epoch_date_close_approach": 1829289540000,
            "relative_velocity": {
                "kilometers_per_second": "12.584874242",
                "kilometers_per_hour": "45305.5472712187",
                "miles_per_hour": "28151.1051919414"
            },
            "miss_distance": {
                "astronomical": "0.0621762741",
                "lunar": "24.1865706249",
                "kilometers": "9301438.169896167",
                "miles": "5779645.6730424246"
            },
            "orbiting_body": "Mars"
        }
    ],
    "orbital_data": {
        "orbit_id": "2",
        "orbit_determination_date": "2017-04-06 08:20:51",
        "first_observation_date": "2017-01-26",
        "last_observation_date": "2017-01-27",
        "data_arc_in_days": 1,
        "observations_used": 24,
        "orbit_uncertainty": "8",
        "minimum_orbit_intersection": ".034635",
        "jupiter_tisserand_invariant": "5.243",
        "epoch_osculation": "2457779.5",
        "eccentricity": ".1393391751139053",
        "semi_major_axis": "1.179430821031267",
        "inclination": "28.18199836290995",
        "ascending_node_longitude": "305.8162296089013",
        "orbital_period": "467.8505407842707",
        "perihelion_distance": "1.015089903324854",
        "perihelion_argument": "165.0822531693822",
        "aphelion_distance": "1.34377173873768",
        "perihelion_time": "2457764.885520316155",
        "mean_anomaly": "11.24549878122335",
        "mean_motion": ".7694765071694096",
        "equinox": "J2000",
        "orbit_class": {
            "orbit_class_type": "APO",
            "orbit_class_description": "Near-Earth asteroid orbits which cross the Earth’s orbit similar to that of 1862 Apollo",
            "orbit_class_range": "a (semi-major axis) > 1.0 AU; q (perihelion) < 1.017 AU"
        }
    },
    "is_sentry_object": false
}